[{"OBJECT_NAME":"STARLINK-31157","OBJECT_ID":"2024-005H","EPOCH":"2026-03-09T11:19:53.471424","MEAN_MOTION":15.26735045,"ECCENTRICITY":0.00026885,"INCLINATION":43.0049,"RA_OF_ASC_NODE":220.6985,"ARG_OF_PERICENTER":288.4771,"MEAN_ANOMALY":71.5788,"EPHEMERIS_TYPE":0,"CLASSIFICATION_TYPE":"U","NORAD_CAT_ID":58735,"ELEMENT_SET_NO":999,"REV_AT_EPOCH":12041,"BSTAR":-0.00012663038,"MEAN_MOTION_DOT":-3.655e-5,"MEAN_MOTION_DDOT":0},{"OBJECT_NAME":"CZ-4B R\/B","OBJECT_ID":"2010-051C","EPOCH":"2026-03-09T16:48:37.977120","MEAN_MOTION":15.17426017,"ECCENTRICITY":0.00758037,"INCLINATION":97.7974,"RA_OF_ASC_NODE":110.8647,"ARG_OF_PERICENTER":95.044,"MEAN_ANOMALY":265.9451,"EPHEMERIS_TYPE":0,"CLASSIFICATION_TYPE":"U","NORAD_CAT_ID":37181,"ELEMENT_SET_NO":999,"REV_AT_EPOCH":84355,"BSTAR":0.00029718512,"MEAN_MOTION_DOT":6.328e-5,"MEAN_MOTION_DDOT":0}]
